{{Infobox Planet  
| name = 481 Emita
| image = 
| caption = 
| discovery=yes | physical_characteristics = yes | bgcolour=#FFFFC0
| discovery_ref = 
| discoverer = [[路易吉·卡内拉|路易吉·卡内拉]]
| discovery_site = [[海德堡|海德堡]]（[[天文台编号列表|024]]）
| discovered =  1902年2月12日
| mp_name = 481
| alt_names = 1902 HP
| named_after = 
| mp_category=[[小行星带|主带小行星]]
| orbit_ref = <ref>[http://ssd.jpl.nasa.gov/sbdb.cgi?sstr=481 481 Emita (1902 HP)]</ref>
| epoch = 2011年8月27日
| semimajor= 2.741843153954888AU
| perihelion=2.316847677235122AU
| aphelion= 3.166838630674654[[天文单位|AU]]
| eccentricity =0.1550035698091426						
| period =1658.297088164776[[日|地球日]]<br>4.54[[年|地球年]] 
| inclination=9.837113548969469[[角度|°]]
| asc_node=66.88206861034148°
| arg_peri=349.2491008295645°
| mean_anomaly=110.8190961252403°
| avg_speed=
 | dimensions=
 | mass=
 | density=
 | surface_grav=
 | escape_velocity=
 | rotation=14.35小时
 | spectral_type= [[C-型小行星|C]]
 | magnitude=
 | abs_magnitude=8.6
 | albedo=
 | single_temperature=
}}
'''小行星481'''（'''481 Emita'''），是由[[意大利|意大利]][[天文学家|天文学家]][[路易吉·卡内拉|路易吉·卡内拉]]于1902年2月12日在德国[[海德堡|海德堡]][[王座山天文台|王座山天文台]]发现的[[小行星带|主带]][[小行星|小行星]]。

小行星481的命名依据不明。

== 参考资料 ==
{{Reflist}}

{{Minor Planet Number|(480)[[小行星480|小行星480]]|(482)[[小行星482|小行星482]]}}

[[Category:小行星带天体|Category:小行星带天体]]
[[Category:1902年发现的小行星|Category:1902年发现的小行星]]
[[Category:C-型小行星|Category:C-型小行星]]